LEMUR-2-VALHALLA        
1 58900U 24022B   26188.02345245  .00011733  00000+0  29263-3 0  9991
2 58900  97.4094  38.2595 0010016  51.0671 309.1466 15.40309483135327
LEMUR-2-CAEL            
1 58903U 24022E   26188.08115866  .00013015  00000+0  31040-3 0  9995
2 58903  97.4077  39.2893 0007978  37.3970 322.7831 15.41661151135405
LEMUR-2-JOHNNYTRUONG    
1 59146U 24043BA  26188.40390914  .00033713  00000+0  38549-3 0  9991
2 59146  97.5392 341.3839 0004358 116.1045 244.0662 15.62091018131193
LEMUR-2-TOMATOKECHUP    
1 60471U 24149D   26188.75549897  .00007285  00000+0  20696-3 0  9994
2 60471  97.3789 270.8599 0002964 136.0140 224.1341 15.36476705105321
LEMUR-2-STELLA          
1 60533U 24149BT  26188.72940021  .00006963  00000+0  40628-3 0  9993
2 60533  97.6725 271.2795 0001085 110.8290 249.3056 15.12265521103602
LEMUR-2-MARHISYAM       
1 60536U 24149BW  26188.71740242  .00007643  00000+0  45283-3 0  9996
2 60536  97.6872 271.7371 0002763  80.2006 279.9535 15.11678961103585
LEMUR-2-AHMED-ASRAR     
1 60576U 24149DN  26188.79755872  .00007953  00000+0  45170-3 0  9992
2 60576  97.6994 273.9913 0000625 254.8296 105.2865 15.13196677103684
LEMUR-2-LLOYD           
1 60577U 24149DP  26188.46016496  .00006420  00000+0  40278-3 0  9991
2 60577  97.6734 269.6046 0004910  90.2019 269.9772 15.09650711103451
LEMUR-2-SQUIRRELCOMM    
1 60578U 24149DQ  26188.17155731  .00004800  00000+0  32133-3 0  9997
2 60578  97.6704 269.0219 0004831 356.7461   3.3734 15.07390844103418
LEMUR-2-SIERRINI        
1 60579U 24149DR  26188.74495384  .00006743  00000+0  40290-3 0  9993
2 60579  97.6835 271.4333 0006586 109.6866 250.5075 15.11407209103560
LEMUR-2-WILSON          
1 62694U 25009CP  26188.17155792  .00002497  00000+0  23207-3 0  9993
2 62694  97.7021 266.2859 0002598   5.7645 354.3605 14.95258050 80344
LEMUR-2-STAR-FOX        
1 62696U 25009CR  26188.73609468  .00004001  00000+0  30359-3 0  9990
2 62696  97.6925 270.1988 0003327  67.8179 292.3399 15.02784369 80647
LEMUR-2-ARIANNA         
1 62699U 25009CU  26188.73456314  .00004195  00000+0  31804-3 0  9993
2 62699  97.6863 269.9554 0003665  73.0390 287.1237 15.02783669 80640
LEMUR-2-ALISIA          
1 62706U 25009DB  26188.77510575  .00005810  00000+0  43504-3 0  9991
2 62706  97.6954 270.8056 0003474 153.3785 206.7619 15.03098125103257
LEMUR-2-ROUNDTRIPPER    
1 62711U 25009DG  26188.18676831  .00006648  00000+0  48362-3 0  9997
2 62711  97.7223 270.8397 0004457  82.7690 277.4043 15.04138808 80639
LEMUR-2-MYNAMEISJEFF    
1 62712U 25009DH  26188.71741088  .00006089  00000+0  44337-3 0  9991
2 62712  97.7279 271.7629 0003591 115.0879 245.0719 15.04137151 80716
